21-Mar-2025 09:15:18
1 44737U 19074AA  25079.91405093  .01059659  67514-3  11329-2 0  9999
2 44737  53.0356 297.5181 0003491 272.4379 277.3185 16.09623024296118
